#dP2023  4  2 12  0  0.00000000      96 __u+U ITR00 EXT  IAC
## 2256  43200.00000000   900.00000000 60036 0.5000000000000
+  120   C06C07C08C09C10C11C12C13C14C16C19C20C21C22C23C24C25
+        C26C27C28C29C30C32C33C34C35C36C37C38C39C40C41C42C43
+        C44C45C46E01E02E03E04E05E07E08E09E10E11E12E13E14E15
+        E18E19E21E24E25E26E27E30E31E33E34E36G01G02G03G04G05
+        G06G07G08G09G10G11G12G13G14G15G16G17G18G19G20G21G22
+        G23G24G25G26G27G28G29G30G31G32J02J03J04R01R02R03R04
+        R05R07R08R09R11R12R13R14R15R16R17R18R19R20R21R22R24
+        R25  0  0  0  0  0  0  0  0  0  0  0  0  0  0  0  0
++        10  9  8 10  8  8  8  9  9  8  9  9  8  8  6  8  9
++         8  9  8  7  9  6 10  9  7  8  6 10  8  8  9 10  8
++         9  9  8  5  7  7  7  7  8  8  7  6  7  7  7  6  8
++         7  8  8  7  7  7  6  6  7  8  7  7  7  7  7  7  7
++         7  6  5  7  9  8  8  7  6  7  6  8  6  6  7  7  6
++         7  7  6  7  6 12  8  7  8  7  9  8 10  8  7  7  8
++         7  7  8  8  6  8  8  7  7  7 11  7  9  8  7  6  8
++         8  0  0  0  0  0  0  0  0  0  0  0  0  0  0  0  0
%c M  cc GPS ccc cccc cccc cccc cccc ccccc ccccc ccccc ccccc
%c cc cc ccc ccc cccc cccc cccc cccc ccccc ccccc ccccc ccccc
%f  0.0000000  0.000000000  0.00000000000  0.000000000000000
%f  0.0000000  0.000000000  0.00000000000  0.000000000000000
%i    0    0    0    0      0      0      0      0         0
%i    0    0    0    0      0      0      0      0         0
/* IAC                                ULTRA-RAPID PREDICTION
/* S/V CLOCKS ARE ALIGNED TO GNSS TIME                      
/* G:C1WC2W R:C1PC2P E:C1XC5X C:C2IC6I J:C1CC2S             
/* PCV:IGS20_2247 OL/AL:FES2004  NONE     YN ORB:CoN CLK:CoN
*  2023 04 03  9 45  0.00000000
PC06  -8681.925798  23096.271924 -34175.977960   -197.201448
PC07 -17406.810345  36731.503310  10900.710715   -114.855949
PC08  -1102.631328  36986.158757  20381.054815    510.682614
PC09   1697.879464  25422.142137 -33101.829986    809.583075
PC10 -10125.508484  36856.846269  17522.956603    -24.216796
PC11 -23089.072029 -10333.225198 -11706.677607    741.586879
PC12  -5592.365787 -15502.961233 -22485.567586    547.326279
PC13   3298.795256  39582.608769  14683.237494    244.323676
PC14 -12950.730750  -9041.429814  23029.107471     74.169883
PC16 -11612.467274  21469.793925 -34179.959950    120.430052
PC19  18150.236623  -1008.472325 -21148.742535   -898.788334
PC20   7020.392207  15995.011943 -21735.669064    646.027779
PC21   9298.291445 -24675.971916   9197.745144   -909.120082
PC22  19411.635766 -18255.934114  -8333.794961   -554.192162
PC23 -13713.089074   9026.025012 -22566.312686   -898.683344
PC24 -12866.571097 -24712.522655  -1348.401379   -216.550692
PC25 -19222.834839  -9717.922666 -17742.252513     99.395809
PC26   -915.135127 -24087.624212  14014.945622   -100.965555
PC27  -4365.563210  15495.312617  22773.406738    120.088010
PC28 -21705.991219   8690.484782  15237.444140     88.271026
PC29  27584.378682   3243.880931   2663.621421    102.126349
PC30  15918.404395  13650.021809  18389.896249      0.599377
PC32  -9167.762181  24725.081905  -9084.764211   -586.225870
PC33 -18117.986249    942.659554  21208.256576   -871.971726
PC34 -17155.429428 -13247.856554 -17605.777051    140.708847
PC35  22048.284101  -9018.380793 -14515.281496    652.929202
PC36  19005.669127  10901.027774  17305.032674   -524.182551
PC37   -654.490952  23542.606925 -14978.427105   -793.951170
PC38  -7402.205199  32376.979879  26092.855439     69.278868
PC39 -17531.222688  19755.008821 -32874.061305     -2.401667
PC40 -24379.005851  32794.899336   9869.539072    -19.299027
PC41 -19537.997028  17795.628613   9005.349148   -803.292906
PC42  -6015.545677 -17095.317431  21277.670591   -755.114208
PC43 -27432.822416  -3877.613196  -3472.057821     14.893716
PC44   3963.634665 -15784.262111 -22681.826431     64.317732
PC45  13372.503536  -9398.909912  22612.345697    -80.310458
PC46  13748.000691  24133.215652   2909.276133    -44.352127
PE01  16763.662785    436.643557  24386.316041     -7.911632
PE02 -16815.147451    146.388880 -24368.955218     30.134034
PE03 -27526.453782   4801.212736   9754.250248   -665.517889
PE04  22894.306716 -16753.102804   8463.576155    -92.411084
PE05 -16053.278779 -10266.371420  22659.171807    -80.340708
PE07  -4844.261853  19136.711030 -22042.673008    -34.764384
PE08 -23029.780970  16644.041919  -8266.885547    -61.408604
PE09   5074.408735 -19075.241902  22070.650326   -891.726527
PE10   4292.320442 -16211.625523 -24398.807648   -523.756390
PE11  -6583.509096 -20760.013321 -20067.008889   1477.045072
PE12  13582.298001  -9700.177407 -24445.614406   -483.725164
PE13   5798.233444  20456.867553  20589.154465    -18.240956
PE14  25627.772715 -16666.559726  -9579.123258    186.544831
PE15 -13860.273455   9367.638437  24426.047301    -11.940935
PE18 -21504.143181   9960.816134   3912.999628   -208.975971
PE19  26881.706799  -2750.344030 -12068.166441  -2854.799186
PE21  11018.180662  19807.938969  19033.066818   -521.220981
PE24   2075.400492 -29466.866204  -1693.557194    -23.624495
PE25 -10854.429002 -20083.244891 -18838.354406   -602.572645
PE26  22193.335008  19180.593996   3941.169799     64.269902
PE27  -1468.435835  29470.689442   2421.551498    -15.921573
PE30 -13337.941827  21141.380718 -15880.221987    -62.709557
PE31  12960.835262 -21668.258763  15445.367542   -520.294708
PE33  25170.362969   7155.120718 -13816.612275   -447.307273
PE34 -25156.975568  -6992.621292  13938.579163    -38.264094
PE36 -21830.642819 -19434.341537  -4735.153211    -35.783478
PG01 -22040.700956 -14276.413745   4772.966758    196.650829
PG02  23266.283032   9911.031165  -7075.451915   -609.425588
PG03 -13145.108859  -8716.571179  21265.125944   -337.425441
PG04 -22600.077011  -2350.993553  13856.872655      7.876804
PG05   6206.830031  22656.728500 -12445.472223   -121.954515
PG06  -5238.767169  14262.253048  21836.366130    585.260520
PG07 -21071.460321  -2523.345717 -15821.138812    209.603467
PG08 -13329.665534 -10195.102384 -20740.804542   -115.993124
PG09 -25241.257195   7008.216815   4452.192970   -187.752917
PG10  11119.552682 -20850.923026 -11632.366427    -31.223129
PG11   8114.567591  20721.927733  14534.293496   -150.307270
PG12  11741.244116  11907.815433  20374.524339   -359.352709
PG13   5033.450489  14304.831007 -21988.098224    500.190830
PG14 -13407.727956  18326.857935 -13655.314353     14.010142
PG15  14913.592513   9131.738518 -20509.547284     27.277507
PG16  -1605.987529 -24173.919284 -10632.790625   -511.422939
PG17 -20874.066064  13591.863347   9793.849233    708.768967
PG18  18705.192225  -1091.362046 -18882.133272   -207.681182
PG19 -13305.754950  15348.637529  16727.384197    298.638448
PG20   1834.308098  26524.589074  -2068.854184    441.178693
PG21 -20920.676923 -16694.489686  -3115.451963    154.305254
PG22   9399.941652 -16514.520492  18934.499977    457.300550
PG23  14732.688314 -10065.349515 -19619.881171     14.405942
PG24  22152.943338  15065.221811   -242.071052   -137.214423
PG25  15336.601531   -140.775257  21354.562847    432.740181
PG26   4498.760122 -25799.704399   3011.207007    241.915178
PG27  -1344.218996 -15513.552654 -21712.463006     67.057717
PG28   6913.013268 -13683.499964  21661.408503     57.968805
PG29  25311.855301  -2106.520371   7855.314725   -593.856105
PG30 -13224.217136   9195.057744 -21043.998092   -524.135208
PG31    939.368259 -17443.419011  19711.429136   -213.110023
PG32  17994.025503 -15793.457580  11458.100781   -441.397026
PJ02 -22424.343089  30866.243999 -13419.410248     -1.393435
PJ03 -28797.643046  22077.170851  26541.828207      1.736345
PJ04 -32083.303745  27189.725558  10106.374437     94.155804
PR01   6493.160596   9102.397861 -22918.444360     25.966624
PR02  17884.020431  -6491.555944 -16906.584790    -23.014495
PR03  18326.575526 -17665.158375  -1071.215205     75.345518
PR04   8862.652435 -18625.575664  15035.120517    181.864509
PR05  -5514.073043  -9602.517382  22995.217936    110.369704
PR07 -18181.288152  17923.899690    403.323389     53.037900
PR08  -8650.761017  18684.352422 -15011.937364    -70.176724
PR09 -12635.462072  -4926.358521 -21605.355587    112.661727
PR11   2357.401188  23742.194348  -8996.276739    -29.312680
PR12  10749.922118  20883.399365   9991.319998     26.149328
PR13  12545.268667   6983.485762  21065.358784    -33.593321
PR14   6687.017714 -13305.293415  20722.284976     24.474294
PR15  -2706.422718 -24113.285816   7888.062516     90.024375
PR16 -10744.187426 -21038.464576  -9660.113506     13.098184
PR17  16005.348690  -4728.141485 -19297.406970    617.893504
PR18   -858.594414 -10976.010400 -23002.528949     74.667276
PR19 -15743.159626 -12310.353947 -15856.835987   -227.653585
PR20 -24528.864843  -5919.956572   3914.399167    -90.469354
PR21 -14506.089294   5415.920073  20262.106641   -385.168961
PR22   1227.492790  11609.613521  22702.191085     77.671231
PR24  24665.711700   4714.843240  -4483.603194    158.921543
PR25 -16432.947254   4122.559228  19066.780454     59.577755
EOF
